*******************************************************************************
Ephemeris / WWW_USER Sat Dec 17 20:34:05 2016 Pasadena, USA      / Horizons    
*******************************************************************************
Target body name: Moon (301)                      {source: DE431mx}
Center body name: Earth (399)                     {source: DE431mx}
Center-site name: (user defined site below)
*******************************************************************************
Start time      : A.D. 2018-Aug-01 00:00:00.0000 UT      
Stop  time      : A.D. 2018-Dec-02 00:00:00.0000 UT      
Step-size       : 2 minutes
*******************************************************************************
Target pole/equ : IAU_MOON                        {East-longitude +}
Target radii    : 1737.4 x 1737.4 x 1737.4 km     {Equator, meridian, pole}    
Center geodetic : 241.855000,34.1456000,0.0000000 {E-lon(deg),Lat(deg),Alt(km)}
Center cylindric: 241.855000,5284.21009,3559.8244 {E-lon(deg),Dxy(km),Dz(km)}
Center pole/equ : High-precision EOP model        {East-longitude +}
Center radii    : 6378.1 x 6378.1 x 6356.8 km     {Equator, meridian, pole}    
Target primary  : Earth
Vis. interferer : MOON (R_eq= 1737.400) km        {source: DE431mx}
Rel. light bend : Sun, EARTH                      {source: DE431mx}
Rel. lght bnd GM: 1.3271E+11, 3.9860E+05 km^3/s^2                              
Atmos refraction: NO (AIRLESS)
RA format       : HMS
Time format     : CAL 
RTS-only print  : NO       
EOP file        : eop.161216.p170309                                           
EOP coverage    : DATA-BASED 1962-JAN-20 TO 2016-DEC-16. PREDICTS-> 2017-MAR-08
Units conversion: 1 au= 149597870.700 km, c= 299792.458 km/s, 1 day= 86400.0 s 
Table cut-offs 1: Elevation (-90.0deg=NO ),Airmass (>38.000=NO), Daylight (NO )
Table cut-offs 2: Solar Elongation (  0.0,180.0=NO ),Local Hour Angle( 0.0=NO )
*******************************************************************************
 Date__(UT)__HR:MN     Azi_(a-appr)_Elev
****************************************
$$SOE
 2018-Aug-27 22:24 *    40.5289 -57.1757
 2018-Aug-27 22:26 *    41.2550 -56.9116
 2018-Aug-27 22:28 *    41.9714 -56.6438
 2018-Aug-27 22:30 *    42.6781 -56.3723
 2018-Aug-27 22:32 *    43.3754 -56.0973
 2018-Aug-27 22:34 *    44.0634 -55.8187
 2018-Aug-27 22:36 *    44.7420 -55.5369
 2018-Aug-27 22:38 *    45.4116 -55.2517
 2018-Aug-27 22:40 *    46.0721 -54.9633
 2018-Aug-27 22:42 *    46.7238 -54.6718
 2018-Aug-27 22:44 *    47.3667 -54.3772
 2018-Aug-27 22:46 *    48.0010 -54.0796
 2018-Aug-27 22:48 *    48.6268 -53.7791
 2018-Aug-27 22:50 *    49.2443 -53.4758
 2018-Aug-27 22:52 *    49.8535 -53.1698
 2018-Aug-27 22:54 *    50.4547 -52.8610
 2018-Aug-27 22:56 *    51.0480 -52.5497
 2018-Aug-27 22:58 *    51.6334 -52.2357
 2018-Aug-27 23:00 *    52.2112 -51.9193
 2018-Aug-27 23:02 *    52.7815 -51.6005
 2018-Aug-27 23:04 *    53.3444 -51.2793
 2018-Aug-27 23:06 *    53.9000 -50.9557
 2018-Aug-27 23:08 *    54.4485 -50.6300
 2018-Aug-27 23:10 *    54.9901 -50.3020
 2018-Aug-27 23:12 *    55.5248 -49.9719
 2018-Aug-27 23:14 *    56.0528 -49.6398
 2018-Aug-27 23:16 *    56.5742 -49.3056
 2018-Aug-27 23:18 *    57.0891 -48.9694
 2018-Aug-27 23:20 *    57.5977 -48.6313
 2018-Aug-27 23:22 *    58.1001 -48.2914
 2018-Aug-27 23:24 *    58.5965 -47.9496
 2018-Aug-27 23:26 *    59.0869 -47.6060
 2018-Aug-27 23:28 *    59.5714 -47.2607
 2018-Aug-27 23:30 *    60.0503 -46.9137
 2018-Aug-27 23:32 *    60.5235 -46.5651
 2018-Aug-27 23:34 *    60.9913 -46.2148
 2018-Aug-27 23:36 *    61.4537 -45.8630
 2018-Aug-27 23:38 *    61.9109 -45.5096
 2018-Aug-27 23:40 *    62.3629 -45.1548
 2018-Aug-27 23:42 *    62.8099 -44.7985
 2018-Aug-27 23:44 *    63.2520 -44.4408
 2018-Aug-27 23:46 *    63.6892 -44.0817
 2018-Aug-27 23:48 *    64.1218 -43.7213
 2018-Aug-27 23:50 *    64.5497 -43.3596
 2018-Aug-27 23:52 *    64.9731 -42.9965
 2018-Aug-27 23:54 *    65.3921 -42.6323
 2018-Aug-27 23:56 *    65.8068 -42.2668
 2018-Aug-27 23:58 *    66.2172 -41.9001
 2018-Aug-28 00:00 *    66.6235 -41.5323
 2018-Aug-28 00:02 *    67.0258 -41.1634
 2018-Aug-28 00:04 *    67.4241 -40.7934
 2018-Aug-28 00:06 *    67.8186 -40.4222
 2018-Aug-28 00:08 *    68.2092 -40.0501
 2018-Aug-28 00:10 *    68.5962 -39.6769
 2018-Aug-28 00:12 *    68.9796 -39.3028
 2018-Aug-28 00:14 *    69.3594 -38.9277
 2018-Aug-28 00:16 *    69.7357 -38.5516
 2018-Aug-28 00:18 *    70.1087 -38.1746
 2018-Aug-28 00:20 *    70.4784 -37.7967
 2018-Aug-28 00:22 *    70.8449 -37.4180
 2018-Aug-28 00:24 *    71.2082 -37.0384
 2018-Aug-28 00:26 *    71.5684 -36.6579
 2018-Aug-28 00:28 *    71.9256 -36.2767
 2018-Aug-28 00:30 *    72.2799 -35.8947
 2018-Aug-28 00:32 *    72.6313 -35.5119
 2018-Aug-28 00:34 *    72.9798 -35.1284
 2018-Aug-28 00:36 *    73.3257 -34.7441
 2018-Aug-28 00:38 *    73.6688 -34.3591
 2018-Aug-28 00:40 *    74.0094 -33.9734
 2018-Aug-28 00:42 *    74.3473 -33.5871
 2018-Aug-28 00:44 *    74.6828 -33.2001
 2018-Aug-28 00:46 *    75.0159 -32.8125
 2018-Aug-28 00:48 *    75.3466 -32.4242
 2018-Aug-28 00:50 *    75.6749 -32.0353
 2018-Aug-28 00:52 *    76.0010 -31.6459
 2018-Aug-28 00:54 *    76.3249 -31.2558
 2018-Aug-28 00:56 *    76.6466 -30.8653
 2018-Aug-28 00:58 *    76.9662 -30.4741
 2018-Aug-28 01:00 *    77.2837 -30.0825
 2018-Aug-28 01:02 *    77.5993 -29.6903
 2018-Aug-28 01:04 *    77.9129 -29.2976
 2018-Aug-28 01:06 *    78.2246 -28.9045
 2018-Aug-28 01:08 *    78.5345 -28.5108
 2018-Aug-28 01:10 *    78.8425 -28.1168
 2018-Aug-28 01:12 *    79.1488 -27.7222
 2018-Aug-28 01:14 *    79.4534 -27.3273
 2018-Aug-28 01:16 *    79.7563 -26.9319
 2018-Aug-28 01:18 *    80.0575 -26.5361
 2018-Aug-28 01:20 *    80.3572 -26.1399
 2018-Aug-28 01:22 *    80.6554 -25.7433
 2018-Aug-28 01:24 *    80.9520 -25.3464
 2018-Aug-28 01:26 *    81.2472 -24.9491
 2018-Aug-28 01:28 *    81.5410 -24.5515
 2018-Aug-28 01:30 *    81.8334 -24.1535
 2018-Aug-28 01:32 *    82.1245 -23.7552
 2018-Aug-28 01:34 *    82.4143 -23.3566
 2018-Aug-28 01:36 *    82.7028 -22.9577
 2018-Aug-28 01:38 *    82.9902 -22.5585
 2018-Aug-28 01:40 *    83.2763 -22.1590
 2018-Aug-28 01:42 *    83.5613 -21.7592
 2018-Aug-28 01:44 *    83.8451 -21.3592
 2018-Aug-28 01:46 *    84.1279 -20.9589
 2018-Aug-28 01:48 *    84.4097 -20.5584
 2018-Aug-28 01:50 *    84.6905 -20.1577
 2018-Aug-28 01:52 *    84.9703 -19.7567
 2018-Aug-28 01:54 *    85.2491 -19.3556
 2018-Aug-28 01:56 *    85.5271 -18.9542
 2018-Aug-28 01:58 *    85.8042 -18.5526
 2018-Aug-28 02:00 *    86.0804 -18.1509
 2018-Aug-28 02:02 *    86.3559 -17.7490
 2018-Aug-28 02:04 *    86.6306 -17.3469
 2018-Aug-28 02:06 *    86.9045 -16.9447
 2018-Aug-28 02:08 *    87.1777 -16.5423
 2018-Aug-28 02:10 *    87.4503 -16.1398
 2018-Aug-28 02:12 *    87.7222 -15.7371
 2018-Aug-28 02:14 *    87.9935 -15.3344
 2018-Aug-28 02:16 *    88.2642 -14.9315
 2018-Aug-28 02:18 *    88.5343 -14.5286
 2018-Aug-28 02:20 *    88.8040 -14.1255
 2018-Aug-28 02:22 *    89.0731 -13.7224
 2018-Aug-28 02:24 *    89.3417 -13.3191
 2018-Aug-28 02:26 C    89.6099 -12.9159
 2018-Aug-28 02:28 C    89.8777 -12.5125
 2018-Aug-28 02:30 C    90.1451 -12.1091
 2018-Aug-28 02:32 C    90.4122 -11.7057
 2018-Aug-28 02:34 C    90.6789 -11.3023
 2018-Aug-28 02:36 C    90.9453 -10.8988
 2018-Aug-28 02:38 C    91.2115 -10.4953
 2018-Aug-28 02:40 C    91.4774 -10.0918
 2018-Aug-28 02:42 C    91.7430  -9.6883
 2018-Aug-28 02:44 C    92.0085  -9.2848
 2018-Aug-28 02:46 C    92.2738  -8.8813
 2018-Aug-28 02:48 C    92.5390  -8.4779
 2018-Aug-28 02:50 C    92.8041  -8.0745
 2018-Aug-28 02:52 N    93.0690  -7.6711
 2018-Aug-28 02:54 N    93.3340  -7.2678
 2018-Aug-28 02:56 N    93.5988  -6.8645
 2018-Aug-28 02:58 N    93.8637  -6.4614
 2018-Aug-28 03:00 N    94.1286  -6.0583
 2018-Aug-28 03:02 N    94.3935  -5.6552
 2018-Aug-28 03:04 N    94.6585  -5.2523
 2018-Aug-28 03:06 N    94.9236  -4.8495
 2018-Aug-28 03:08 N    95.1888  -4.4468
 2018-Aug-28 03:10 N    95.4542  -4.0442
 2018-Aug-28 03:12 N    95.7197  -3.6417
 2018-Aug-28 03:14 N    95.9854  -3.2394
 2018-Aug-28 03:16 N    96.2514  -2.8372
 2018-Aug-28 03:18 N    96.5176  -2.4352
 2018-Aug-28 03:20 N    96.7841  -2.0333
 2018-Aug-28 03:22 A    97.0508  -1.6316
 2018-Aug-28 03:24 A    97.3179  -1.2301
 2018-Aug-28 03:26 A    97.5854  -0.8287
 2018-Aug-28 03:28 Ar   97.8532  -0.4276
 2018-Aug-28 03:30 Am   98.1214  -0.0267
 2018-Aug-28 03:32 Am   98.3901   0.3740
 2018-Aug-28 03:34 Am   98.6592   0.7745
 2018-Aug-28 03:36 Am   98.9288   1.1748
 2018-Aug-28 03:38 Am   99.1989   1.5748
 2018-Aug-28 03:40 Am   99.4695   1.9745
 2018-Aug-28 03:42 Am   99.7407   2.3740
 2018-Aug-28 03:44 Am  100.0125   2.7732
 2018-Aug-28 03:46 Am  100.2849   3.1722
 2018-Aug-28 03:48 Am  100.5579   3.5708
 2018-Aug-28 03:50 Am  100.8316   3.9692
 2018-Aug-28 03:52 Am  101.1059   4.3672
 2018-Aug-28 03:54  m  101.3810   4.7649
 2018-Aug-28 03:56  m  101.6568   5.1623
 2018-Aug-28 03:58  m  101.9334   5.5594
 2018-Aug-28 04:00  m  102.2108   5.9561
 2018-Aug-28 04:02  m  102.4891   6.3524
 2018-Aug-28 04:04  m  102.7682   6.7484
 2018-Aug-28 04:06  m  103.0481   7.1440
 2018-Aug-28 04:08  m  103.3290   7.5391
 2018-Aug-28 04:10  m  103.6108   7.9339
 2018-Aug-28 04:12  m  103.8936   8.3283
 2018-Aug-28 04:14  m  104.1773   8.7222
 2018-Aug-28 04:16  m  104.4621   9.1157
 2018-Aug-28 04:18  m  104.7479   9.5088
 2018-Aug-28 04:20  m  105.0348   9.9014
 2018-Aug-28 04:22  m  105.3229  10.2935
 2018-Aug-28 04:24  m  105.6120  10.6852
 2018-Aug-28 04:26  m  105.9023  11.0763
 2018-Aug-28 04:28  m  106.1939  11.4669
 2018-Aug-28 04:30  m  106.4866  11.8570
 2018-Aug-28 04:32  m  106.7806  12.2466
 2018-Aug-28 04:34  m  107.0759  12.6356
 2018-Aug-28 04:36  m  107.3726  13.0241
 2018-Aug-28 04:38  m  107.6705  13.4120
 2018-Aug-28 04:40  m  107.9699  13.7993
 2018-Aug-28 04:42  m  108.2706  14.1860
 2018-Aug-28 04:44  m  108.5729  14.5721
 2018-Aug-28 04:46  m  108.8766  14.9576
